SCD 1                   
1 22490U 93009B   26063.55792058  .00000572  00000+0  10554-3 0  9997
2 22490  24.9684 133.5728 0042203 110.4898  26.7654 14.46064200745950
TECHSAT 1B (GO-32)      
1 25397U 98043D   26063.47176809  .00000141  00000+0  80934-4 0  9992
2 25397  99.0021  53.6166 0001909 127.7289 232.4062 14.24404532436428
SCD 2                   
1 25504U 98060A   26063.84110344  .00000585  00000+0  11239-3 0  9997
2 25504  24.9967 355.6411 0016988 100.4795 292.4595 14.45480038445217
DLR-TUBSAT              
1 25757U 99029B   26063.51016952  .00000227  00000+0  67493-4 0  9994
2 25757  98.6659  55.5929 0013335 311.7470  48.2584 14.52395353418053
TERRA                   
1 25994U 99068A   26063.78487468  .00000631  00000+0  13779-3 0  9999
2 25994  97.9602 117.4068 0002392 163.1129 261.5498 14.61008869394363
MAROC-TUBSAT            
1 27004U 01056D   26063.43549781 -.00000020  00000+0  29556-4 0  9996
2 27004  99.8002 238.3382 0020414  52.6621 336.0829 13.70257720211846
AQUA                    
1 27424U 02022A   26063.88715911  .00001506  00000+0  31040-3 0  9994
2 27424  98.4167  31.1649 0000622  61.1247 325.7482 14.61963487268030
IRS-P6 (RESOURCESAT-1)  
1 28051U 03046A   26063.88208671  .00000234  00000+0  92400-4 0  9993
2 28051  98.2052 105.4387 0063041 295.8027 238.0850 14.36113517165559
SHIYAN-1 (SY-1)         
1 28220U 04012A   26063.18082462  .00020887  00000+0  70206-3 0  9991
2 28220  97.8781 134.6261 0006298  41.7510 318.4209 15.30840801195015
AURA                    
1 28376U 04026A   26063.83492546  .00001499  00000+0  31456-3 0  9990
2 28376  98.3304  19.5064 0001025  79.2780 280.8535 14.61135714150977
IRS-P5 (CARTOSAT-1)     
1 28649U 05017A   26063.78174360  .00002055  00000+0  21455-3 0  9996
2 28649  97.5417  91.5477 0002449  74.5243 285.6246 14.90745830128264
SINAH 1                 
1 28893U 05043D   26063.76561002  .00000714  00000+0  14522-3 0  9994
2 28893  98.2675 197.5777 0013436 240.8795 119.1062 14.64066797 85243
RESURS-DK 1             
1 29228U 06021A   26063.50997779  .00003809  00000+0  22311-3 0  9993
2 29228  69.9304 250.4226 0002412 165.2487 194.8750 15.12702247 86749
ARIRANG-2 (KOMPSAT-2)   
1 29268U 06031A   26063.84653492  .00000607  00000+0  12267-3 0  9998
2 29268  97.8292 253.3338 0015539  48.0879  75.5133 14.64583770 46203
LAPAN-TUBSAT            
1 29709U 07001A   26063.80911956  .00001078  00000+0  13041-3 0  9998
2 29709  98.1321  60.7001 0012467 159.3157 200.8565 14.85821342 35651
HAIYANG-1B              
1 31113U 07010A   26063.47342204  .00000171  00000+0  80663-4 0  9995
2 31113  98.3421  49.4231 0014052 147.4465 212.7588 14.30997629985650
COSMO-SKYMED 1          
1 31598U 07023A   26063.85030888  .00004841  00000+0  43144-3 0  9990
2 31598  97.8860 254.8441 0000820  94.3945 265.7370 14.96489106 14180
