[{"OBJECT_NAME":"SCD 1","OBJECT_ID":"1993-009B","EPOCH":"2026-03-04T13:23:24.338112","MEAN_MOTION":14.460642,"ECCENTRICITY":0.0042203,"INCLINATION":24.9684,"RA_OF_ASC_NODE":133.5728,"ARG_OF_PERICENTER":110.4898,"MEAN_ANOMALY":26.7654,"EPHEMERIS_TYPE":0,"CLASSIFICATION_TYPE":"U","NORAD_CAT_ID":22490,"ELEMENT_SET_NO":999,"REV_AT_EPOCH":74595,"BSTAR":0.00010554,"MEAN_MOTION_DOT":5.72e-6,"MEAN_MOTION_DDOT":0},{"OBJECT_NAME":"TECHSAT 1B (GO-32)","OBJECT_ID":"1998-043D","EPOCH":"2026-03-04T11:19:20.762976","MEAN_MOTION":14.24404532,"ECCENTRICITY":0.00019092,"INCLINATION":99.0021,"RA_OF_ASC_NODE":53.6166,"ARG_OF_PERICENTER":127.7289,"MEAN_ANOMALY":232.4062,"EPHEMERIS_TYPE":0,"CLASSIFICATION_TYPE":"U","NORAD_CAT_ID":25397,"ELEMENT_SET_NO":999,"REV_AT_EPOCH":43642,"BSTAR":8.0933571e-5,"MEAN_MOTION_DOT":1.41e-6,"MEAN_MOTION_DDOT":0},{"OBJECT_NAME":"SCD 2","OBJECT_ID":"1998-060A","EPOCH":"2026-03-04T20:11:11.337216","MEAN_MOTION":14.45480038,"ECCENTRICITY":0.0016988,"INCLINATION":24.9967,"RA_OF_ASC_NODE":355.6411,"ARG_OF_PERICENTER":100.4795,"MEAN_ANOMALY":292.4595,"EPHEMERIS_TYPE":0,"CLASSIFICATION_TYPE":"U","NORAD_CAT_ID":25504,"ELEMENT_SET_NO":999,"REV_AT_EPOCH":44521,"BSTAR":0.00011239,"MEAN_MOTION_DOT":5.85e-6,"MEAN_MOTION_DDOT":0},{"OBJECT_NAME":"DLR-TUBSAT","OBJECT_ID":"1999-029B","EPOCH":"2026-03-04T12:14:38.646528","MEAN_MOTION":14.52395353,"ECCENTRICITY":0.00133356,"INCLINATION":98.6659,"RA_OF_ASC_NODE":55.5929,"ARG_OF_PERICENTER":311.747,"MEAN_ANOMALY":48.2584,"EPHEMERIS_TYPE":0,"CLASSIFICATION_TYPE":"U","NORAD_CAT_ID":25757,"ELEMENT_SET_NO":999,"REV_AT_EPOCH":41805,"BSTAR":6.7493051e-5,"MEAN_MOTION_DOT":2.27e-6,"MEAN_MOTION_DDOT":0},{"OBJECT_NAME":"TERRA","OBJECT_ID":"1999-068A","EPOCH":"2026-03-04T18:50:13.172352","MEAN_MOTION":14.61008869,"ECCENTRICITY":0.0002392,"INCLINATION":97.9602,"RA_OF_ASC_NODE":117.4068,"ARG_OF_PERICENTER":163.1129,"MEAN_ANOMALY":261.5498,"EPHEMERIS_TYPE":0,"CLASSIFICATION_TYPE":"U","NORAD_CAT_ID":25994,"ELEMENT_SET_NO":999,"REV_AT_EPOCH":39436,"BSTAR":0.00013779,"MEAN_MOTION_DOT":6.31e-6,"MEAN_MOTION_DDOT":0},{"OBJECT_NAME":"MAROC-TUBSAT","OBJECT_ID":"2001-056D","EPOCH":"2026-03-04T10:27:07.010784","MEAN_MOTION":13.7025772,"ECCENTRICITY":0.00204145,"INCLINATION":99.8002,"RA_OF_ASC_NODE":238.3382,"ARG_OF_PERICENTER":52.6621,"MEAN_ANOMALY":336.0829,"EPHEMERIS_TYPE":0,"CLASSIFICATION_TYPE":"U","NORAD_CAT_ID":27004,"ELEMENT_SET_NO":999,"REV_AT_EPOCH":21184,"BSTAR":2.9555508e-5,"MEAN_MOTION_DOT":-2.0e-7,"MEAN_MOTION_DDOT":0},{"OBJECT_NAME":"AQUA","OBJECT_ID":"2002-022A","EPOCH":"2026-03-04T21:17:30.547104","MEAN_MOTION":14.61963487,"ECCENTRICITY":6.22e-5,"INCLINATION":98.4167,"RA_OF_ASC_NODE":31.1649,"ARG_OF_PERICENTER":61.1247,"MEAN_ANOMALY":325.7482,"EPHEMERIS_TYPE":0,"CLASSIFICATION_TYPE":"U","NORAD_CAT_ID":27424,"ELEMENT_SET_NO":999,"REV_AT_EPOCH":26803,"BSTAR":0.0003104,"MEAN_MOTION_DOT":1.506e-5,"MEAN_MOTION_DDOT":0},{"OBJECT_NAME":"IRS-P6 (RESOURCESAT-1)","OBJECT_ID":"2003-046A","EPOCH":"2026-03-04T21:10:12.291744","MEAN_MOTION":14.36113517,"ECCENTRICITY":0.0063041,"INCLINATION":98.2052,"RA_OF_ASC_NODE":105.4387,"ARG_OF_PERICENTER":295.8027,"MEAN_ANOMALY":238.085,"EPHEMERIS_TYPE":0,"CLASSIFICATION_TYPE":"U","NORAD_CAT_ID":28051,"ELEMENT_SET_NO":999,"REV_AT_EPOCH":16555,"BSTAR":9.24e-5,"MEAN_MOTION_DOT":2.34e-6,"MEAN_MOTION_DDOT":0},{"OBJECT_NAME":"SHIYAN-1 (SY-1)","OBJECT_ID":"2004-012A","EPOCH":"2026-03-04T04:20:23.247168","MEAN_MOTION":15.30840801,"ECCENTRICITY":0.00062985,"INCLINATION":97.8781,"RA_OF_ASC_NODE":134.6261,"ARG_OF_PERICENTER":41.751,"MEAN_ANOMALY":318.4209,"EPHEMERIS_TYPE":0,"CLASSIFICATION_TYPE":"U","NORAD_CAT_ID":28220,"ELEMENT_SET_NO":999,"REV_AT_EPOCH":19501,"BSTAR":0.00070206485,"MEAN_MOTION_DOT":0.00020887,"MEAN_MOTION_DDOT":0},{"OBJECT_NAME":"AURA","OBJECT_ID":"2004-026A","EPOCH":"2026-03-04T20:02:17.559744","MEAN_MOTION":14.61135714,"ECCENTRICITY":0.0001025,"INCLINATION":98.3304,"RA_OF_ASC_NODE":19.5064,"ARG_OF_PERICENTER":79.278,"MEAN_ANOMALY":280.8535,"EPHEMERIS_TYPE":0,"CLASSIFICATION_TYPE":"U","NORAD_CAT_ID":28376,"ELEMENT_SET_NO":999,"REV_AT_EPOCH":15097,"BSTAR":0.00031456,"MEAN_MOTION_DOT":1.499e-5,"MEAN_MOTION_DDOT":0},{"OBJECT_NAME":"IRS-P5 (CARTOSAT-1)","OBJECT_ID":"2005-017A","EPOCH":"2026-03-04T18:45:42.647040","MEAN_MOTION":14.9074583,"ECCENTRICITY":0.0002449,"INCLINATION":97.5417,"RA_OF_ASC_NODE":91.5477,"ARG_OF_PERICENTER":74.5243,"MEAN_ANOMALY":285.6246,"EPHEMERIS_TYPE":0,"CLASSIFICATION_TYPE":"U","NORAD_CAT_ID":28649,"ELEMENT_SET_NO":999,"REV_AT_EPOCH":12826,"BSTAR":0.00021455,"MEAN_MOTION_DOT":2.055e-5,"MEAN_MOTION_DDOT":0},{"OBJECT_NAME":"SINAH 1","OBJECT_ID":"2005-043D","EPOCH":"2026-03-04T18:22:28.705728","MEAN_MOTION":14.64066797,"ECCENTRICITY":0.0013436,"INCLINATION":98.2675,"RA_OF_ASC_NODE":197.5777,"ARG_OF_PERICENTER":240.8795,"MEAN_ANOMALY":119.1062,"EPHEMERIS_TYPE":0,"CLASSIFICATION_TYPE":"U","NORAD_CAT_ID":28893,"ELEMENT_SET_NO":999,"REV_AT_EPOCH":8524,"BSTAR":0.00014522,"MEAN_MOTION_DOT":7.14e-6,"MEAN_MOTION_DDOT":0},{"OBJECT_NAME":"RESURS-DK 1","OBJECT_ID":"2006-021A","EPOCH":"2026-03-04T12:14:22.081056","MEAN_MOTION":15.12702247,"ECCENTRICITY":0.00024124,"INCLINATION":69.9304,"RA_OF_ASC_NODE":250.4226,"ARG_OF_PERICENTER":165.2487,"MEAN_ANOMALY":194.875,"EPHEMERIS_TYPE":0,"CLASSIFICATION_TYPE":"U","NORAD_CAT_ID":29228,"ELEMENT_SET_NO":999,"REV_AT_EPOCH":8674,"BSTAR":0.00022310866,"MEAN_MOTION_DOT":3.809e-5,"MEAN_MOTION_DDOT":0},{"OBJECT_NAME":"ARIRANG-2 (KOMPSAT-2)","OBJECT_ID":"2006-031A","EPOCH":"2026-03-04T20:19:00.617088","MEAN_MOTION":14.6458377,"ECCENTRICITY":0.0015539,"INCLINATION":97.8292,"RA_OF_ASC_NODE":253.3338,"ARG_OF_PERICENTER":48.0879,"MEAN_ANOMALY":75.5133,"EPHEMERIS_TYPE":0,"CLASSIFICATION_TYPE":"U","NORAD_CAT_ID":29268,"ELEMENT_SET_NO":999,"REV_AT_EPOCH":4620,"BSTAR":0.00012267,"MEAN_MOTION_DOT":6.07e-6,"MEAN_MOTION_DDOT":0},{"OBJECT_NAME":"LAPAN-TUBSAT","OBJECT_ID":"2007-001A","EPOCH":"2026-03-04T19:25:07.929984","MEAN_MOTION":14.85821342,"ECCENTRICITY":0.0012467,"INCLINATION":98.1321,"RA_OF_ASC_NODE":60.7001,"ARG_OF_PERICENTER":159.3157,"MEAN_ANOMALY":200.8565,"EPHEMERIS_TYPE":0,"CLASSIFICATION_TYPE":"U","NORAD_CAT_ID":29709,"ELEMENT_SET_NO":999,"REV_AT_EPOCH":3565,"BSTAR":0.00013041,"MEAN_MOTION_DOT":1.078e-5,"MEAN_MOTION_DDOT":0},{"OBJECT_NAME":"HAIYANG-1B","OBJECT_ID":"2007-010A","EPOCH":"2026-03-04T11:21:43.664256","MEAN_MOTION":14.30997629,"ECCENTRICITY":0.00140521,"INCLINATION":98.3421,"RA_OF_ASC_NODE":49.4231,"ARG_OF_PERICENTER":147.4465,"MEAN_ANOMALY":212.7588,"EPHEMERIS_TYPE":0,"CLASSIFICATION_TYPE":"U","NORAD_CAT_ID":31113,"ELEMENT_SET_NO":999,"REV_AT_EPOCH":98565,"BSTAR":8.0663245e-5,"MEAN_MOTION_DOT":1.71e-6,"MEAN_MOTION_DDOT":0},{"OBJECT_NAME":"COSMO-SKYMED 1","OBJECT_ID":"2007-023A","EPOCH":"2026-03-04T20:24:26.687232","MEAN_MOTION":14.96489106,"ECCENTRICITY":8.2e-5,"INCLINATION":97.886,"RA_OF_ASC_NODE":254.8441,"ARG_OF_PERICENTER":94.3945,"MEAN_ANOMALY":265.737,"EPHEMERIS_TYPE":0,"CLASSIFICATION_TYPE":"U","NORAD_CAT_ID":31598,"ELEMENT_SET_NO":999,"REV_AT_EPOCH":1418,"BSTAR":0.00043144,"MEAN_MOTION_DOT":4.841e-5,"MEAN_MOTION_DDOT":0}]
